[{"OBJECT_NAME":"SCD 1","OBJECT_ID":"1993-009B","EPOCH":"2026-03-09T10:27:49.694112","MEAN_MOTION":14.46067729,"ECCENTRICITY":0.00420469,"INCLINATION":24.9688,"RA_OF_ASC_NODE":103.4557,"ARG_OF_PERICENTER":161.8893,"MEAN_ANOMALY":221.4416,"EPHEMERIS_TYPE":0,"CLASSIFICATION_TYPE":"U","NORAD_CAT_ID":22490,"ELEMENT_SET_NO":999,"REV_AT_EPOCH":74666,"BSTAR":9.424806e-5,"MEAN_MOTION_DOT":5.32e-6,"MEAN_MOTION_DDOT":0},{"OBJECT_NAME":"FENGYUN 1C DEB","OBJECT_ID":"1999-025FP","EPOCH":"2026-03-09T19:45:28.768032","MEAN_MOTION":14.37111905,"ECCENTRICITY":0.00877285,"INCLINATION":98.8802,"RA_OF_ASC_NODE":6.8439,"ARG_OF_PERICENTER":113.2748,"MEAN_ANOMALY":310.5886,"EPHEMERIS_TYPE":0,"CLASSIFICATION_TYPE":"U","NORAD_CAT_ID":29869,"ELEMENT_SET_NO":999,"REV_AT_EPOCH":66,"BSTAR":0.0003780382,"MEAN_MOTION_DOT":1.127e-5,"MEAN_MOTION_DDOT":0}]
